start=new Date('2022-10-01T00:00:00.000Z').valueOf();
sats=[{"MEAN_MOTION_DOT":"0.00017552","TIME_SYSTEM":"UTC","SITE":"AFETR","FILE":"3587966","REV_AT_EPOCH":"7704","ARG_OF_PERICENTER":"68.1355","REF_FRAME":"TEME","BSTAR":"0.00119350000000","CENTER_NAME":"EARTH","OBJECT_NAME":"STARLINK-2255","TLE_LINE1":"1 48597U 21041AW  22273.84875542  .00017552  00000-0  11935-2 0  9991","TLE_LINE2":"2 48597  53.0550  19.3063 0001406  68.1355 291.9784 15.06425424 77045","ELEMENT_SET_NO":"999","EPOCH":"2022-09-30T20:22:12.468288","MEAN_MOTION_DDOT":"0.0000000000000","ECCENTRICITY":"0.00014060","EPHEMERIS_TYPE":"0","OBJECT_TYPE":"PAYLOAD","OBJECT_ID":"2021-041AW","PERIOD":"95.591","PERIAPSIS":"546.162","MEAN_MOTION":"15.06425424","GP_ID":"213905452","DECAY_DATE":null,"RCS_SIZE":"LARGE","RA_OF_ASC_NODE":"19.3063","COUNTRY_CODE":"US","INCLINATION":"53.0550","APOAPSIS":"548.109","SEMIMAJOR_AXIS":"6925.271","NORAD_CAT_ID":"48597","LAUNCH_DATE":"2021-05-15","MEAN_ELEMENT_THEORY":"SGP4","CLASSIFICATION_TYPE":"U","MEAN_ANOMALY":"291.9784"},{"EPHEMERIS_TYPE":"0","OBJECT_TYPE":"PAYLOAD","OBJECT_ID":"2021-041AX","PERIOD":"95.592","MEAN_MOTION_DDOT":"0.0000000000000","ECCENTRICITY":"0.00013500","ELEMENT_SET_NO":"999","TLE_LINE2":"2 48598  53.0572  19.2985 0001350  77.8609 282.2531 15.06403452 76239","EPOCH":"2022-09-30T20:27:30.280320","OBJECT_NAME":"STARLINK-2256","TLE_LINE1":"1 48598U 21041AX  22273.85243380  .00002860  00000-0  21081-3 0  9992","CENTER_NAME":"EARTH","BSTAR":"0.00021081000000","REV_AT_EPOCH":"7623","REF_FRAME":"TEME","ARG_OF_PERICENTER":"77.8609","TIME_SYSTEM":"UTC","MEAN_MOTION_DOT":"0.00002860","SITE":"AFETR","FILE":"3587966","MEAN_ELEMENT_THEORY":"SGP4","LAUNCH_DATE":"2021-05-15","CLASSIFICATION_TYPE":"U","MEAN_ANOMALY":"282.2531","NORAD_CAT_ID":"48598","APOAPSIS":"548.138","INCLINATION":"53.0572","SEMIMAJOR_AXIS":"6925.338","COUNTRY_CODE":"US","RA_OF_ASC_NODE":"19.2985","GP_ID":"213904223","DECAY_DATE":null,"RCS_SIZE":"LARGE","PERIAPSIS":"546.268","MEAN_MOTION":"15.06403452"},{"MEAN_MOTION":"15.06397152","PERIAPSIS":"546.180","RCS_SIZE":"LARGE","DECAY_DATE":null,"GP_ID":"213851796","RA_OF_ASC_NODE":"355.3784","COUNTRY_CODE":"US","SEMIMAJOR_AXIS":"6925.357","INCLINATION":"53.0545","APOAPSIS":"548.265","NORAD_CAT_ID":"48599","MEAN_ANOMALY":"297.0910","CLASSIFICATION_TYPE":"U","LAUNCH_DATE":"2021-05-15","MEAN_ELEMENT_THEORY":"SGP4","FILE":"3587704","SITE":"AFETR","TIME_SYSTEM":"UTC","MEAN_MOTION_DOT":"0.00013247","REF_FRAME":"TEME","ARG_OF_PERICENTER":"63.0233","REV_AT_EPOCH":"7736","BSTAR":"0.00090662000000","CENTER_NAME":"EARTH","TLE_LINE1":"1 48599U 21041AY  22273.61332433  .00013247  00000-0  90662-3 0  9997","OBJECT_NAME":"STARLINK-2274","EPOCH":"2022-09-30T14:43:11.222112","ELEMENT_SET_NO":"999","TLE_LINE2":"2 48599  53.0545 355.3784 0001505  63.0233 297.0910 15.06397152 77362","ECCENTRICITY":"0.00015050","MEAN_MOTION_DDOT":"0.0000000000000","PERIOD":"95.592","OBJECT_ID":"2021-041AY","OBJECT_TYPE":"PAYLOAD","EPHEMERIS_TYPE":"0"},{"TLE_LINE1":"1 48600U 21041AZ  22273.65063781  .00000342  00000-0  41819-4 0  9994","OBJECT_NAME":"STARLINK-2275","EPOCH":"2022-09-30T15:36:55.106784","ELEMENT_SET_NO":"999","TLE_LINE2":"2 48600  53.0564  10.1974 0001376  74.6319 285.4822 15.06404998 77159","MEAN_MOTION_DDOT":"0.0000000000000","ECCENTRICITY":"0.00013760","OBJECT_TYPE":"PAYLOAD","OBJECT_ID":"2021-041AZ","PERIOD":"95.592","EPHEMERIS_TYPE":"0","SITE":"AFETR","FILE":"3587966","MEAN_MOTION_DOT":"0.00000342","TIME_SYSTEM":"UTC","REF_FRAME":"TEME","ARG_OF_PERICENTER":"74.6319","REV_AT_EPOCH":"7715","BSTAR":"0.00004181900000","CENTER_NAME":"EARTH","SEMIMAJOR_AXIS":"6925.333","APOAPSIS":"548.151","INCLINATION":"53.0564","NORAD_CAT_ID":"48600","MEAN_ANOMALY":"285.4822","MEAN_ELEMENT_THEORY":"SGP4","LAUNCH_DATE":"2021-05-15","CLASSIFICATION_TYPE":"U","MEAN_MOTION":"15.06404998","PERIAPSIS":"546.245","RCS_SIZE":"LARGE","GP_ID":"213905724","DECAY_DATE":null,"RA_OF_ASC_NODE":"10.1974","COUNTRY_CODE":"US"},{"PERIAPSIS":"546.194","MEAN_MOTION":"15.06404530","GP_ID":"213905952","DECAY_DATE":null,"RCS_SIZE":"LARGE","RA_OF_ASC_NODE":"355.2206","COUNTRY_CODE":"US","INCLINATION":"53.0553","APOAPSIS":"548.205","SEMIMAJOR_AXIS":"6925.335","NORAD_CAT_ID":"48602","MEAN_ELEMENT_THEORY":"SGP4","LAUNCH_DATE":"2021-05-15","CLASSIFICATION_TYPE":"U","MEAN_ANOMALY":"298.4880","TIME_SYSTEM":"UTC","MEAN_MOTION_DOT":"-0.00000473","SITE":"AFETR","FILE":"3587966","REV_AT_EPOCH":"7735","REF_FRAME":"TEME","ARG_OF_PERICENTER":"61.6256","BSTAR":"-0.00001283800000","CENTER_NAME":"EARTH","OBJECT_NAME":"STARLINK-2713","TLE_LINE1":"1 48602U 21041BB  22273.64649500 -.00000473  00000-0 -12838-4 0  9990","ELEMENT_SET_NO":"999","TLE_LINE2":"2 48602  53.0553 355.2206 0001452  61.6256 298.4880 15.06404530 77353","EPOCH":"2022-09-30T15:30:57.168000","MEAN_MOTION_DDOT":"0.0000000000000","ECCENTRICITY":"0.00014520","EPHEMERIS_TYPE":"0","OBJECT_TYPE":"PAYLOAD","PERIOD":"95.592","OBJECT_ID":"2021-041BB"},{"MEAN_MOTION":"15.06422896","PERIAPSIS":"546.043","RCS_SIZE":"LARGE","GP_ID":"213851621","DECAY_DATE":null,"RA_OF_ASC_NODE":"350.3008","COUNTRY_CODE":"US","SEMIMAJOR_AXIS":"6925.278","APOAPSIS":"548.244","INCLINATION":"53.0562","NORAD_CAT_ID":"48603","MEAN_ANOMALY":"306.5789","MEAN_ELEMENT_THEORY":"SGP4","LAUNCH_DATE":"2021-05-15","CLASSIFICATION_TYPE":"U","SITE":"AFETR","FILE":"3587704","TIME_SYSTEM":"UTC","MEAN_MOTION_DOT":"-0.00000615","REF_FRAME":"TEME","ARG_OF_PERICENTER":"53.5346","REV_AT_EPOCH":"7743","BSTAR":"-0.00002234900000","CENTER_NAME":"EARTH","TLE_LINE1":"1 48603U 21041BC  22273.62572625 -.00000615  00000-0 -22349-4 0  9998","OBJECT_NAME":"STARLINK-2714","EPOCH":"2022-09-30T15:01:02.748000","TLE_LINE2":"2 48603  53.0562 350.3008 0001589  53.5346 306.5789 15.06422896 77434","ELEMENT_SET_NO":"999","MEAN_MOTION_DDOT":"0.0000000000000","ECCENTRICITY":"0.00015890","OBJECT_TYPE":"PAYLOAD","PERIOD":"95.591","OBJECT_ID":"2021-041BC","EPHEMERIS_TYPE":"0"},{"PERIAPSIS":"545.966","MEAN_MOTION":"15.06412531","DECAY_DATE":null,"GP_ID":"213904973","RCS_SIZE":"LARGE","RA_OF_ASC_NODE":"19.4148","COUNTRY_CODE":"US","APOAPSIS":"548.384","INCLINATION":"53.0549","SEMIMAJOR_AXIS":"6925.310","NORAD_CAT_ID":"48604","CLASSIFICATION_TYPE":"U","MEAN_ELEMENT_THEORY":"SGP4","LAUNCH_DATE":"2021-05-15","MEAN_ANOMALY":"297.8245","TIME_SYSTEM":"UTC","MEAN_MOTION_DOT":"0.00018491","FILE":"3587966","SITE":"AFETR","REV_AT_EPOCH":"7704","ARG_OF_PERICENTER":"62.2921","REF_FRAME":"TEME","BSTAR":"0.00125660000000","CENTER_NAME":"EARTH","TLE_LINE1":"1 48604U 21041BD  22273.82664947  .00018491  00000-0  12566-2 0  9997","OBJECT_NAME":"STARLINK-2757","ELEMENT_SET_NO":"999","TLE_LINE2":"2 48604  53.0549  19.4148 0001746  62.2921 297.8245 15.06412531 77040","EPOCH":"2022-09-30T19:50:22.514208","ECCENTRICITY":"0.00017460","MEAN_MOTION_DDOT":"0.0000000000000","EPHEMERIS_TYPE":"0","PERIOD":"95.591","OBJECT_ID":"2021-041BD","OBJECT_TYPE":"PAYLOAD"},{"PERIAPSIS":"546.084","MEAN_MOTION":"15.06413804","DECAY_DATE":null,"GP_ID":"213904977","RCS_SIZE":"LARGE","RA_OF_ASC_NODE":"355.2298","COUNTRY_CODE":"US","INCLINATION":"53.0556","APOAPSIS":"548.259","SEMIMAJOR_AXIS":"6925.306","NORAD_CAT_ID":"48638","CLASSIFICATION_TYPE":"U","MEAN_ELEMENT_THEORY":"SGP4","LAUNCH_DATE":"2021-05-26","MEAN_ANOMALY":"281.5738","MEAN_MOTION_DOT":"0.00001987","TIME_SYSTEM":"UTC","FILE":"3587966","SITE":"AFETR","REV_AT_EPOCH":"7446","REF_FRAME":"TEME","ARG_OF_PERICENTER":"78.5428","BSTAR":"0.00015222000000","CENTER_NAME":"EARTH","TLE_LINE1":"1 48638U 21044A   22273.64554402  .00001987  00000-0  15222-3 0  9996","OBJECT_NAME":"STARLINK-2758","ELEMENT_SET_NO":"999","TLE_LINE2":"2 48638  53.0556 355.2298 0001570  78.5428 281.5738 15.06413804 74463","EPOCH":"2022-09-30T15:29:35.003328","ECCENTRICITY":"0.00015700","MEAN_MOTION_DDOT":"0.0000000000000","EPHEMERIS_TYPE":"0","PERIOD":"95.591","OBJECT_ID":"2021-044A","OBJECT_TYPE":"PAYLOAD"},{"APOAPSIS":"548.500","INCLINATION":"53.0550","SEMIMAJOR_AXIS":"6925.349","CLASSIFICATION_TYPE":"U","LAUNCH_DATE":"2021-05-26","MEAN_ELEMENT_THEORY":"SGP4","MEAN_ANOMALY":"297.4789","NORAD_CAT_ID":"48639","DECAY_DATE":null,"GP_ID":"213905229","RCS_SIZE":"LARGE","PERIAPSIS":"545.928","MEAN_MOTION":"15.06399948","COUNTRY_CODE":"US","RA_OF_ASC_NODE":"355.3026","TLE_LINE2":"2 48639  53.0550 355.3026 0001857  62.6389 297.4789 15.06399948 74460","ELEMENT_SET_NO":"999","EPOCH":"2022-09-30T15:08:21.765408","TLE_LINE1":"1 48639U 21044B   22273.63080747  .00000353  00000-0  42630-4 0  9992","OBJECT_NAME":"STARLINK-2739","EPHEMERIS_TYPE":"0","PERIOD":"95.592","OBJECT_ID":"2021-044B","OBJECT_TYPE":"PAYLOAD","ECCENTRICITY":"0.00018570","MEAN_MOTION_DDOT":"0.0000000000000","REV_AT_EPOCH":"7446","ARG_OF_PERICENTER":"62.6389","REF_FRAME":"TEME","TIME_SYSTEM":"UTC","MEAN_MOTION_DOT":"0.00000353","FILE":"3587966","SITE":"AFETR","CENTER_NAME":"EARTH","BSTAR":"0.00004263000000"},{"NORAD_CAT_ID":"48640","LAUNCH_DATE":"2021-05-26","MEAN_ELEMENT_THEORY":"SGP4","CLASSIFICATION_TYPE":"U","MEAN_ANOMALY":"281.8563","APOAPSIS":"548.272","INCLINATION":"53.0564","SEMIMAJOR_AXIS":"6925.319","RA_OF_ASC_NODE":"355.6026","COUNTRY_CODE":"US","PERIAPSIS":"546.097","MEAN_MOTION":"15.06409528","GP_ID":"213905457","DECAY_DATE":null,"RCS_SIZE":"LARGE","MEAN_MOTION_DDOT":"0.0000000000000","ECCENTRICITY":"0.00015700","EPHEMERIS_TYPE":"0","OBJECT_TYPE":"PAYLOAD","OBJECT_ID":"2021-044C","PERIOD":"95.592","TLE_LINE1":"1 48640U 21044C   22273.62440975 -.00000760  00000-0 -32094-4 0  9993","OBJECT_NAME":"STARLINK-2736","TLE_LINE2":"2 48640  53.0564 355.6026 0001570  78.2602 281.8563 15.06409528 74455","ELEMENT_SET_NO":"999","EPOCH":"2022-09-30T14:59:09.002400","BSTAR":"-0.00003209400000","CENTER_NAME":"EARTH","MEAN_MOTION_DOT":"-0.00000760","TIME_SYSTEM":"UTC","SITE":"AFETR","FILE":"3587966","REV_AT_EPOCH":"7445","ARG_OF_PERICENTER":"78.2602","REF_FRAME":"TEME"}];
